0 FENGYUN 1C DEB
1 30865U 99025AXB 13282.74335641  .00054392  00000-0  23138-2 0  4623
2 30865 098.8540 210.1750 0137833 094.8997 326.2581 15.14530915359092
0 FENGYUN 1C DEB
1 30865U 99025AXB 13287.03634522  .00048858  00000-0  20615-2 0  4650
2 30865 098.8557 215.1692 0137054 080.7751 335.8219 15.14906943359741
0 FENGYUN 1C DEB
1 30865U 99025AXB 13288.30848648  .00070140  00000-0  29394-2 0  4660
2 30865 098.8560 216.6483 0136863 076.6687 073.8241 15.15052484359947
0 FENGYUN 1C DEB
1 30865U 99025AXB 13289.74487340  .00071735  00000-0  29964-2 0  4672
2 30865 098.8558 218.3218 0136249 072.0538 348.4813 15.15219495360150
0 FENGYUN 1C DEB
1 30865U 99025AXB 13290.28950093  .00071364  00000-0  29775-2 0  4682
2 30865 098.8552 218.9559 0136034 070.3798 079.2414 15.15281797360249
0 FENGYUN 1C DEB
1 30865U 99025AXB 13291.06493410  .00065039  00000-0  27106-2 0  4693
2 30865 098.8552 219.8589 0135699 067.8698 349.3269 15.15381135360356
0 FENGYUN 1C DEB
1 30865U 99025AXB 13292.05679521  .00062269  00000-0  25902-2 0  4708
2 30865 098.8553 221.0140 0135317 064.6347 000.4528 15.15497184360500
0 FENGYUN 1C DEB
1 30865U 99025AXB 13293.32305573  .00069531  00000-0  28795-2 0  4715
2 30865 098.8553 222.4889 0134899 060.5784 069.1032 15.15654573360700
0 FENGYUN 1C DEB
1 30865U 99025AXB 13293.77189341  .00070907  00000-0  29332-2 0  4725
2 30865 098.8554 223.0120 0134820 059.1021 358.1475 15.15693817360760
0 FENGYUN 1C DEB
1 30865U 99025AXB 13295.30716116  .00080763  00000-0  33212-2 0  4736
2 30865 098.8554 224.8010 0134404 054.1224 095.7937 15.15889699361005
0 FENGYUN 1C DEB
1 30865U 99025AXB 13295.75268162  .00080795  00000-0  33191-2 0  4740
2 30865 098.8552 225.3205 0134236 052.6673 007.1226 15.15941312361064
